TRANSPORTER-10 OBJECT AD
1 59125U 24043AD  26068.86032889  .00011954  00000+0  36311-3 0  9997
2 59125  97.5470 207.3753 0008984 221.4908 138.5653 15.34189901112026
STARLINK-34221          
1 64453U 25130R   26068.43847046  .00028760  00000+0  97956-3 0  9992
2 64453  53.1602  89.7733 0001396  76.5586 283.5571 15.30194722 40665
